[
    {
        "CCSDS_OMM_VERS": "3.0",
        "COMMENT": "GENERATED VIA SPACE-TRACK.ORG API",
        "CREATION_DATE": "2025-03-01T17:52:32",
        "ORIGINATOR": "18 SPCS",
        "OBJECT_NAME": "GALILEO 23 (2C9)",
        "OBJECT_ID": "2018-060C",
        "CENTER_NAME": "EARTH",
        "REF_FRAME": "TEME",
        "TIME_SYSTEM": "UTC",
        "MEAN_ELEMENT_THEORY": "SGP4",
        "EPOCH": "2025-03-01T03:08:58.595136",
        "MEAN_MOTION": "1.70475233",
        "ECCENTRICITY": "0.00050510",
        "INCLINATION": "57.2893",
        "RA_OF_ASC_NODE": "354.5507",
        "ARG_OF_PERICENTER": "310.5119",
        "MEAN_ANOMALY": "49.4489",
        "EPHEMERIS_TYPE": "0",
        "CLASSIFICATION_TYPE": "U",
        "NORAD_CAT_ID": "43566",
        "ELEMENT_SET_NO": "999",
        "REV_AT_EPOCH": "4112",
        "BSTAR": "0.00000000000000",
        "MEAN_MOTION_DOT": "-0.00000084",
        "MEAN_MOTION_DDOT": "0.0000000000000",
        "SEMIMAJOR_AXIS": "29600.177",
        "PERIOD": "844.697",
        "APOAPSIS": "23236.993",
        "PERIAPSIS": "23207.091",
        "OBJECT_TYPE": "PAYLOAD",
        "RCS_SIZE": "LARGE",
        "COUNTRY_CODE": "ESA",
        "LAUNCH_DATE": "2018-07-25",
        "SITE": "FRGUI",
        "DECAY_DATE": null,
        "FILE": "4656182",
        "GP_ID": "282004665",
        "TLE_LINE0": "0 GALILEO 23 (2C9)",
        "TLE_LINE1": "1 43566U 18060C   25060.13123374 -.00000084  00000-0  00000-0 0  9999",
        "TLE_LINE2": "2 43566  57.2893 354.5507 0005051 310.5119  49.4489  1.70475233 41128"
    }
]